<?xml version="1.0" encoding="UTF-8" standalone="no" ?>
<gpx xmlns="http://www.topografix.com/GPX/1/1" xmlns:xsi="http://www.w3.org/2001/XMLSchema-instance" xsi:schemaLocation="http://www.topografix.com/GPX/1/1 http://www.topografix.com/GPX/1/1/gpx.xsd" version="1.1" creator="EditGPX">
  <metadata>
    <name>Itinéraire à pied Montreuil</name>
  </metadata>
  <trk>
    <name><![CDATA[23267808]]></name>
    <extensions>
      <line xmlns="http://www.topografix.com/GPX/gpx_style/0/2">
        <color>0000FF</color>
        <width>4</width>
      </line>
    </extensions>
    <trkseg>
      <trkpt lat="48.800426" lon="2.128270">
        <ele>126.5</ele>
      </trkpt>
      <trkpt lat="48.800392" lon="2.128391">
        <ele>126.4</ele>
      </trkpt>
      <trkpt lat="48.801171" lon="2.128889">
        <ele>128.2</ele>
      </trkpt>
      <trkpt lat="48.801939" lon="2.129336">
        <ele>130</ele>
      </trkpt>
      <trkpt lat="48.802048" lon="2.129426">
        <ele>130</ele>
      </trkpt>
      <trkpt lat="48.801977" lon="2.129713">
        <ele>131</ele>
      </trkpt>
      <trkpt lat="48.802018" lon="2.129738">
        <ele>131</ele>
      </trkpt>
      <trkpt lat="48.801917" lon="2.130084">
        <ele>131.1</ele>
      </trkpt>
      <trkpt lat="48.801618" lon="2.131227">
        <ele>132.2</ele>
      </trkpt>
      <trkpt lat="48.801502" lon="2.131793">
        <ele>132.6</ele>
      </trkpt>
      <trkpt lat="48.801403" lon="2.131967">
        <ele>132.9</ele>
      </trkpt>
      <trkpt lat="48.800846" lon="2.134057">
        <ele>132</ele>
      </trkpt>
      <trkpt lat="48.800779" lon="2.134121">
        <ele>132.2</ele>
      </trkpt>
      <trkpt lat="48.800281" lon="2.136036">
        <ele>132</ele>
      </trkpt>
      <trkpt lat="48.799868" lon="2.137589">
        <ele>132</ele>
      </trkpt>
      <trkpt lat="48.799797" lon="2.137922">
        <ele>132.1</ele>
      </trkpt>
      <trkpt lat="48.799431" lon="2.139268">
        <ele>131.9</ele>
      </trkpt>
      <trkpt lat="48.799064" lon="2.140636">
        <ele>130.3</ele>
      </trkpt>
      <trkpt lat="48.798243" lon="2.143701">
        <ele>126.5</ele>
      </trkpt>
      <trkpt lat="48.798194" lon="2.143923">
        <ele>126.5</ele>
      </trkpt>
      <trkpt lat="48.797889" lon="2.145067">
        <ele>126.3</ele>
      </trkpt>
      <trkpt lat="48.797886" lon="2.145486">
        <ele>126</ele>
      </trkpt>
      <trkpt lat="48.797944" lon="2.147709">
        <ele>123.6</ele>
      </trkpt>
      <trkpt lat="48.798013" lon="2.150247">
        <ele>119.8</ele>
      </trkpt>
      <trkpt lat="48.798507" lon="2.150193">
        <ele>120.3</ele>
      </trkpt>
      <trkpt lat="48.798721" lon="2.150064">
        <ele>120.9</ele>
      </trkpt>
      <trkpt lat="48.801376" lon="2.147149">
        <ele>128.3</ele>
      </trkpt>
      <trkpt lat="48.800926" lon="2.145081">
        <ele>131.6</ele>
      </trkpt>
      <trkpt lat="48.800963" lon="2.145019">
        <ele>131.9</ele>
      </trkpt>
      <trkpt lat="48.803819" lon="2.146040">
        <ele>131.3</ele>
      </trkpt>
      <trkpt lat="48.803928" lon="2.146236">
        <ele>130.9</ele>
      </trkpt>
      <trkpt lat="48.804338" lon="2.146408">
        <ele>130</ele>
      </trkpt>
      <trkpt lat="48.804338" lon="2.146408">
        <ele>130</ele>
      </trkpt>
      <trkpt lat="48.804338" lon="2.146408">
        <ele>130</ele>
      </trkpt>
      <trkpt lat="48.804338" lon="2.146408">
        <ele>130</ele>
      </trkpt>
      <trkpt lat="48.804496" lon="2.146403">
        <ele>129.8</ele>
      </trkpt>
      <trkpt lat="48.804601" lon="2.146102">
        <ele>129.5</ele>
      </trkpt>
      <trkpt lat="48.805443" lon="2.141843">
        <ele>134.6</ele>
      </trkpt>
      <trkpt lat="48.805358" lon="2.141755">
        <ele>134.9</ele>
      </trkpt>
      <trkpt lat="48.805285" lon="2.141607">
        <ele>135.2</ele>
      </trkpt>
      <trkpt lat="48.805400" lon="2.141515">
        <ele>135.5</ele>
      </trkpt>
      <trkpt lat="48.805378" lon="2.141441">
        <ele>135.8</ele>
      </trkpt>
      <trkpt lat="48.805363" lon="2.141307">
        <ele>136.2</ele>
      </trkpt>
      <trkpt lat="48.805367" lon="2.141112">
        <ele>136.7</ele>
      </trkpt>
      <trkpt lat="48.805456" lon="2.140918">
        <ele>137.3</ele>
      </trkpt>
      <trkpt lat="48.805501" lon="2.140898">
        <ele>137.1</ele>
      </trkpt>
      <trkpt lat="48.805726" lon="2.140868">
        <ele>136.3</ele>
      </trkpt>
      <trkpt lat="48.805804" lon="2.140820">
        <ele>136.1</ele>
      </trkpt>
      <trkpt lat="48.805639" lon="2.138321">
        <ele>137.7</ele>
      </trkpt>
      <trkpt lat="48.805515" lon="2.136799">
        <ele>135.2</ele>
      </trkpt>
      <trkpt lat="48.805692" lon="2.136763">
        <ele>135</ele>
      </trkpt>
      <trkpt lat="48.806187" lon="2.136852">
        <ele>134.7</ele>
      </trkpt>
      <trkpt lat="48.805695" lon="2.136763">
        <ele>135</ele>
      </trkpt>
      <trkpt lat="48.805393" lon="2.132651">
        <ele>130.6</ele>
      </trkpt>
      <trkpt lat="48.805323" lon="2.132654">
        <ele>130.8</ele>
      </trkpt>
      <trkpt lat="48.805312" lon="2.132669">
        <ele>130.9</ele>
      </trkpt>
      <trkpt lat="48.805226" lon="2.132686">
        <ele>131</ele>
      </trkpt>
      <trkpt lat="48.804878" lon="2.132772">
        <ele>131</ele>
      </trkpt>
      <trkpt lat="48.804855" lon="2.132450">
        <ele>130.6</ele>
      </trkpt>
      <trkpt lat="48.804696" lon="2.132434">
        <ele>130.3</ele>
      </trkpt>
      <trkpt lat="48.804192" lon="2.132134">
        <ele>131</ele>
      </trkpt>
      <trkpt lat="48.802396" lon="2.131015">
        <ele>132</ele>
      </trkpt>
      <trkpt lat="48.801937" lon="2.130727">
        <ele>131.6</ele>
      </trkpt>
      <trkpt lat="48.801667" lon="2.130564">
        <ele>132</ele>
      </trkpt>
      <trkpt lat="48.801911" lon="2.129666">
        <ele>130.7</ele>
      </trkpt>
      <trkpt lat="48.801704" lon="2.129647">
        <ele>130.1</ele>
      </trkpt>
      <trkpt lat="48.800517" lon="2.128888">
        <ele>127</ele>
      </trkpt>
      <trkpt lat="48.800523" lon="2.128817">
        <ele>127</ele>
      </trkpt>
      <trkpt lat="48.800597" lon="2.128542">
        <ele>127</ele>
      </trkpt>
      <trkpt lat="48.800551" lon="2.128476">
        <ele>127</ele>
      </trkpt>
      <trkpt lat="48.800392" lon="2.128391">
        <ele>126.4</ele>
      </trkpt>
    </trkseg>
  </trk>
</gpx>